NOAA 15
1 25338U 98030A   17013.54599101  .00000002  00000-0  19970-4 0  9999
2 25338  40.0000   0.0000 0000000   0.0000   0.0000 10.00000000970969
NOAA 18
1 28654U 05018A   17013.47289762  .00000025  00000-0  38783-4 0  9996
2 28654  20.0000   0.0000 0000000   0.0000   0.0000 10.00000000600428
